OBJECT_NAME,OBJECT_ID,EPOCH,MEAN_MOTION,ECCENTRICITY,INCLINATION,RA_OF_ASC_NODE,ARG_OF_PERICENTER,MEAN_ANOMALY,EPHEMERIS_TYPE,CLASSIFICATION_TYPE,NORAD_CAT_ID,ELEMENT_SET_NO,REV_AT_EPOCH,BSTAR,MEAN_MOTION_DOT,MEAN_MOTION_DDOT
ONEWEB-0435,2022-012L,2026-06-15T21:32:23.232768,13.10373187,.0001426,87.8830,36.5352,83.4809,276.6481,0,U,51632,999,20914,-.16825E-2,-.575E-5,0
ONEWEB-0436,2022-012M,2026-06-16T01:45:22.046976,13.17648880,.0001632,87.9141,6.0671,89.7602,270.3717,0,U,51633,999,21353,-.1992E-4,.5E-7,0
ONEWEB-0438,2022-012N,2026-06-16T04:28:20.277120,13.10369584,.0001959,87.8830,36.4802,80.5096,279.6253,0,U,51634,999,20921,-.39602E-3,-.126E-5,0
ONEWEB-0439,2022-012P,2026-06-16T04:33:07.761024,13.10371488,.0001771,87.8826,36.4671,79.6021,280.5306,0,U,51635,999,20919,-.93596E-3,-.314E-5,0
ONEWEB-0442,2022-012Q,2026-06-16T01:34:26.469696,13.17648748,.0002391,87.9132,6.1016,82.5712,277.5691,0,U,51636,999,21352,.12627E-3,.62E-6,0
ONEWEB-0443,2022-012R,2026-06-16T02:02:22.411104,13.17649785,.0001767,87.9132,6.0986,76.4911,283.6418,0,U,51637,999,21357,.33612E-4,.26E-6,0
ONEWEB-0444,2022-012S,2026-06-16T04:18:46.924128,13.10369359,.0001777,87.8822,36.4676,77.4956,282.6370,0,U,51638,999,20920,.17913E-3,.75E-6,0
ONEWEB-0445,2022-012T,2026-06-15T21:30:00.182016,13.10381945,.0001832,87.8843,36.5123,89.7913,270.3424,0,U,51639,999,20917,.12876E-2,.462E-5,0
ONEWEB-0446,2022-012U,2026-06-16T04:16:23.475072,13.10369447,.0001866,87.8831,36.4851,86.8184,273.3157,0,U,51640,999,20919,.92302E-3,.335E-5,0
ONEWEB-0448,2022-012V,2026-06-16T04:23:33.822240,13.10369335,.0001757,87.8826,36.4806,80.3186,279.8140,0,U,51641,999,20916,-.31262E-4,.2E-7,0
ONEWEB-0449,2022-012W,2026-06-16T04:30:44.203968,13.10364310,.0002081,87.8831,36.4648,74.6425,285.4932,0,U,51642,999,20917,-.2801E-2,-.965E-5,0
ONEWEB-0451,2022-012X,2026-06-16T01:40:31.459584,13.17649508,.0001997,87.9142,6.0653,83.0091,277.1268,0,U,51643,999,21351,.5793E-4,.35E-6,0
ONEWEB-0452,2022-012Y,2026-06-16T01:38:04.642656,13.17648977,.0001883,87.9133,6.1025,78.0595,282.0748,0,U,51644,999,21352,.13522E-3,.65E-6,0
ONEWEB-0456,2022-012AA,2026-06-15T21:25:11.681184,13.10383757,.0001591,87.8843,36.5107,81.9476,278.1831,0,U,51646,999,20917,.25836E-2,.915E-5,0
ONEWEB-0457,2022-012AB,2026-06-16T04:11:24.786816,13.10370154,.0002147,87.8830,36.4733,88.2240,271.9133,0,U,51647,999,20921,.14282E-2,.511E-5,0
ONEWEB-0458,2022-012AC,2026-06-16T04:42:40.161024,13.10371167,.0001828,87.8839,36.4565,76.0166,284.1165,0,U,51648,999,20917,-.15595E-2,-.532E-5,0
ONEWEB-0461,2022-012AD,2026-06-16T03:59:00.921696,13.17648865,.0001925,87.9142,6.0601,89.6576,270.4776,0,U,51649,999,21375,.4155E-4,.29E-6,0
ONEWEB-0463,2022-012AE,2026-06-16T01:42:57.045312,13.17649291,.0001967,87.9130,6.1016,91.3518,268.7839,0,U,51650,999,21352,.79972E-4,.44E-6,0
ONEWEB-0464,2022-012AF,2026-06-16T04:37:53.579136,13.10368425,.0001565,87.8826,36.4785,76.1514,283.9787,0,U,51651,999,20919,-.18967E-2,-.649E-5,0
ONEWEB-0468,2022-012AG,2026-06-15T15:57:45.160992,13.10378273,.00014882,87.8833,36.5774,75.5039,284.6253,0,U,51652,999,20910,.17945574E-3,.75E-6,0
ONEWEB-0473,2022-012AH,2026-06-16T04:25:56.805600,13.10369258,.0001778,87.8828,36.4763,78.9338,281.1989,0,U,51653,999,20917,-.94916E-4,-.2E-6,0
ONEWEB-0474,2022-012AJ,2026-06-16T04:14:00.024288,13.10370497,.000161,87.8838,36.4620,74.3866,285.7439,0,U,51654,999,20916,.11542E-2,.416E-5,0
ONEWEB-0475,2022-012AK,2026-06-16T01:59:57.496704,13.17648768,.0001509,87.9133,6.0922,68.2908,291.8384,0,U,51655,999,21354,.62087E-4,.37E-6,0
ONEWEB-0490,2022-138A,2026-06-16T01:45:20.102976,13.19725072,.0001682,87.9174,305.1886,101.2819,258.8503,0,U,54113,999,17668,-.1192E-3,-.35E-6,0
ONEWEB-0492,2022-138B,2026-06-16T02:21:44.211168,13.19725670,.0001838,87.9167,305.1851,106.5717,253.5618,0,U,54114,999,17669,-.13632E-4,.7E-7,0
ONEWEB-0495,2022-138C,2026-06-15T22:11:31.932960,13.19724567,.0001251,87.9168,305.2222,107.8678,252.2592,0,U,54115,999,17665,-.30821E-3,-.11E-5,0
ONEWEB-0497,2022-138D,2026-06-16T02:08:04.869600,13.19724867,.0001779,87.9175,305.1812,99.7971,260.3362,0,U,54116,999,17666,.69642E-4,.41E-6,0
ONEWEB-0499,2022-138E,2026-06-16T03:33:22.483296,13.19726344,.0001595,87.9168,305.1789,96.9731,263.1583,0,U,54117,999,17668,-.12834E-3,-.38E-6,0
ONEWEB-0500,2022-138F,2026-06-16T01:47:36.321216,13.19724489,.0001917,87.9177,305.1876,100.2959,259.8390,0,U,54118,999,17668,-.1689E-3,-.55E-6,0
ONEWEB-0501,2022-138G,2026-06-16T02:30:49.211136,13.19723137,.0001444,87.9177,305.1814,102.4529,257.6765,0,U,54119,999,17666,-.18116E-4,.6E-7,0
ONEWEB-0502,2022-138H,2026-06-16T02:10:20.597088,13.19724624,.0001612,87.9176,305.1728,95.1429,264.9888,0,U,54120,999,17668,.56807E-4,.36E-6,0
ONEWEB-0503,2022-138J,2026-06-16T01:54:25.947072,13.19725061,.00019,87.9180,305.1807,89.8064,270.3286,0,U,54121,999,17667,.10904E-3,.57E-6,0
ONEWEB-0504,2022-138K,2026-06-16T03:25:25.029120,13.19725699,.0001635,87.9176,305.1735,95.5009,264.6310,0,U,54122,999,17669,.11027E-3,.57E-6,0
ONEWEB-0505,2022-138L,2026-06-16T03:20:52.292832,13.19726016,.0001396,87.9175,305.1752,98.4586,261.6705,0,U,54123,999,17667,-.7207E-4,-.16E-6,0
ONEWEB-0506,2022-138M,2026-06-16T02:44:27.616128,13.19723671,.0001532,87.9178,305.1772,100.4545,259.6760,0,U,54124,999,17666,.5781E-4,.36E-6,0
ONEWEB-0507,2022-138N,2026-06-16T03:14:02.725728,13.19725293,.0001679,87.9167,305.1853,101.5701,258.5620,0,U,54125,999,17671,-.12412E-3,-.37E-6,0
ONEWEB-0508,2022-138P,2026-06-16T03:09:29.032128,13.19724134,.0001535,87.9168,305.1854,108.2213,251.9087,0,U,54126,999,17669,-.1784E-3,-.58E-6,0
ONEWEB-0509,2022-138Q,2026-06-15T21:05:33.601632,13.19722264,.0001711,87.9178,305.2253,99.9245,260.2081,0,U,54127,999,17663,.1026E-2,.424E-5,0
ONEWEB-0510,2022-138R,2026-06-15T23:53:45.785184,13.20772817,.0002404,87.9194,274.6731,95.7764,264.3643,0,U,54128,999,17912,-.49159E-4,-.7E-7,0
ONEWEB-0511,2022-138S,2026-06-16T02:28:33.339360,13.19725771,.0001772,87.9176,305.1835,90.1967,269.9369,0,U,54129,999,17669,.23411E-4,.22E-6,0
ONEWEB-0512,2022-138T,2026-06-16T02:17:10.356000,13.19725063,.0001532,87.9167,305.1899,94.8753,265.2554,0,U,54130,999,17666,-.21423E-5,.12E-6,0
ONEWEB-0513,2022-138U,2026-06-16T02:25:54.467040,13.20268479,.0001186,87.9175,305.1329,74.1719,285.9545,0,U,54131,999,17657,-.13129E-3,-.4E-6,0
ONEWEB-0514,2022-138V,2026-06-16T02:39:55.190016,13.19724467,.0001976,87.9180,305.1806,96.9782,263.1576,0,U,54132,999,17668,-.17476E-3,-.57E-6,0
ONEWEB-0515,2022-138W,2026-06-15T19:56:10.866048,13.20770344,.00027023,87.9199,274.7005,111.6382,248.5039,0,U,54133,999,17912,-.18612766E-3,-.63E-6,0
ONEWEB-0516,2022-138X,2026-06-16T02:03:31.112064,13.19725614,.0001799,87.9166,305.1918,102.8053,257.3281,0,U,54134,999,17668,.15778E-4,.19E-6,0
ONEWEB-0517,2022-138Y,2026-06-16T03:23:07.995264,13.19724191,.0001928,87.9175,305.1732,89.3411,270.7943,0,U,54135,999,17669,-.17517E-3,-.57E-6,0
ONEWEB-0518,2022-138Z,2026-06-16T02:01:16.438656,13.19727912,.0001813,87.9168,305.1939,104.2130,255.9205,0,U,54136,999,17668,.55564E-4,.35E-6,0
ONEWEB-0519,2022-138AA,2026-06-15T21:10:07.639104,13.19726549,.0001918,87.9178,305.2257,92.5640,267.5713,0,U,54137,999,17666,.25915E-3,.117E-5,0
ONEWEB-0520,2022-138AB,2026-06-16T03:27:41.497056,13.19724734,.0001598,87.9178,305.1736,101.8713,258.2599,0,U,54138,999,17668,-.10721E-3,-.3E-6,0
ONEWEB-0521,2022-138AC,2026-06-16T02:26:16.335744,13.19725275,.0001967,87.9176,305.1706,92.3415,267.7943,0,U,54139,999,17662,.16614E-3,.79E-6,0
ONEWEB-0522,2022-138AD,2026-06-15T22:18:21.379104,13.19724630,.0001699,87.9180,305.2073,98.2645,261.8681,0,U,54140,999,17664,-.75894E-4,-.17E-6,0
ONEWEB-0523,2022-138AE,2026-06-16T01:04:03.388224,13.20770608,.000277,87.9197,274.6681,98.9705,261.1742,0,U,54141,999,17915,-.60208E-4,-.11E-6,0
ONEWEB-0524,2022-138AF,2026-06-16T00:49:30.991872,13.20770661,.0002588,87.9195,274.6671,116.8355,243.3043,0,U,54142,999,17915,.64953E-4,.39E-6,0
ONEWEB-0525,2022-138AG,2026-06-16T02:23:59.529120,13.19725498,.0001554,87.9175,305.1810,106.7197,253.4106,0,U,54143,999,17668,-.66334E-4,-.14E-6,0
ONEWEB-0526,2022-138AH,2026-06-16T03:11:45.536352,13.19725299,.0001784,87.9177,305.1750,102.5816,257.5516,0,U,54144,999,17666,-.2062E-3,-.7E-6,0
ONEWEB-0529,2022-138AJ,2026-06-16T03:16:18.503328,13.19724417,.0001636,87.9169,305.1835,102.4618,257.6698,0,U,54145,999,17668,-.10284E-3,-.28E-6,0
ONEWEB-0531,2022-138AK,2026-06-15T19:02:51.861120,13.20772018,.00028168,87.9192,274.7129,104.8305,255.3140,0,U,54146,999,17912,.59456913E-4,.37E-6,0
ONEWEB-0535,2022-138AL,2026-06-16T02:14:53.570976,13.19725746,.0002181,87.9177,305.1761,95.5805,264.5576,0,U,54147,999,17669,.10565E-3,.55E-6,0
ONEWEB-0536,2022-138AM,2026-06-16T00:10:43.584096,13.20771300,.0002954,87.9182,274.6927,107.9450,252.2005,0,U,54148,999,17914,.28739E-4,.25E-6,0
ONEWEB-0527,2022-166A,2026-06-16T04:37:17.992704,13.21823414,.0001965,87.9253,244.1953,100.0018,260.1338,0,U,54642,999,17140,.11447E-3,.6E-6,0
ONEWEB-0528,2022-166B,2026-06-16T04:38:30.794208,13.21824285,.000185,87.9256,244.1974,103.5145,256.6195,0,U,54643,999,17141,.10875E-3,.58E-6,0
ONEWEB-0539,2022-166C,2026-06-16T03:44:02.278752,13.21826937,.0001961,87.9259,244.1763,92.7705,267.3653,0,U,54644,999,17140,.19211E-3,.92E-6,0
ONEWEB-0540,2022-166D,2026-06-15T22:26:54.741120,13.21826737,.0002052,87.9254,244.2507,95.5206,264.6162,0,U,54645,999,17136,-.42806E-4,-.5E-7,0
ONEWEB-0542,2022-166E,2026-06-16T03:58:33.392928,13.21828251,.0002007,87.9264,244.1730,90.7083,269.4281,0,U,54646,999,17140,.41153E-3,.183E-5,0
ONEWEB-0545,2022-166F,2026-06-16T04:56:40.905600,13.21828794,.0002134,87.9255,244.1770,84.9016,275.2361,0,U,54647,999,17137,.18436E-3,.89E-6,0
ONEWEB-0580,2022-166G,2026-06-16T04:20:21.005088,13.21827875,.0002251,87.9255,244.1819,89.1685,270.9707,0,U,54648,999,17141,.27699E-3,.127E-5,0
ONEWEB-0582,2022-166H,2026-06-16T03:31:55.652160,13.21827020,.0002172,87.9255,244.1810,87.2093,272.9289,0,U,54649,999,17138,.24428E-3,.114E-5,0
